[{"OBJECT_NAME":"LUSAT (LO-19)","OBJECT_ID":"1990-005G","EPOCH":"2026-03-09T14:54:14.260896","MEAN_MOTION":14.34087969,"ECCENTRICITY":0.001234,"INCLINATION":98.8938,"RA_OF_ASC_NODE":87.6461,"ARG_OF_PERICENTER":134.6824,"MEAN_ANOMALY":225.5367,"EPHEMERIS_TYPE":0,"CLASSIFICATION_TYPE":"U","NORAD_CAT_ID":20442,"ELEMENT_SET_NO":999,"REV_AT_EPOCH":88812,"BSTAR":8.4338e-5,"MEAN_MOTION_DOT":1.89e-6,"MEAN_MOTION_DDOT":0},{"OBJECT_NAME":"COSMOS 2150","OBJECT_ID":"1991-041A","EPOCH":"2026-03-09T21:22:27.398496","MEAN_MOTION":14.32619295,"ECCENTRICITY":0.00160185,"INCLINATION":74.0357,"RA_OF_ASC_NODE":293.6901,"ARG_OF_PERICENTER":108.0273,"MEAN_ANOMALY":252.2625,"EPHEMERIS_TYPE":0,"CLASSIFICATION_TYPE":"U","NORAD_CAT_ID":21418,"ELEMENT_SET_NO":999,"REV_AT_EPOCH":81476,"BSTAR":6.2548549e-5,"MEAN_MOTION_DOT":1.44e-6,"MEAN_MOTION_DDOT":0}]
